     2.100          NAVIGATION                              RINEX VERSION / TYPE
fic2rin                                 02/26/2010 00:05:50 PGM / RUN BY / DATE
                                                            END OF HEADER
11 10  2 25 12  0  0.0 -.473447144032D-04 -.216004991671D-11  .000000000000D+00
     .610000000000D+02  .323125000000D+02  .670920803687D-08  .178031596174D+01
     .160932540894D-05  .104928601068D-01  .604800879955D-05  .515371843529D+04
     .388800000000D+06 -.314787030220D-06  .767992994608D+00  .186264514923D-08
     .888690140803D+00  .226375000000D+03  .793644228845D+00 -.910395064466D-08
     .317156067966D-09  .100000000000D+01  .157200000000D+04  .000000000000D+00
     .340000000000D+01  .000000000000D+00 -.116415321827D-07  .610000000000D+02
     .381606000000D+06  .400000000000D+01
12 10  2 25 12  0  0.0 -.145738013089D-03  .466116034659D-11  .000000000000D+00
     .770000000000D+02 -.140312500000D+03  .426553481950D-08  .196028326317D+01
    -.743009150028D-05  .345243467018D-02  .796839594841D-05  .515375280762D+04
     .388800000000D+06  .707805156708D-07 -.108830481386D+01  .447034835815D-07
     .969665311687D+00  .230281250000D+03 -.536541135286D+00 -.804783522464D-08
    -.216437586923D-09  .100000000000D+01  .157200000000D+04  .000000000000D+00
     .240000000000D+01  .000000000000D+00 -.121071934700D-07  .770000000000D+02
     .381606000000D+06  .400000000000D+01
13 10  2 25 12  0  0.0  .306331552565D-03 -.113686837722D-12  .000000000000D+00
     .400000000000D+01  .113875000000D+03  .354229040776D-08 -.190616434678D+01
     .599399209023D-05  .417569011915D-02  .887364149094D-05  .515358842659D+04
     .388800000000D+06  .353902578354D-07 -.312519026979D+01  .707805156708D-07
     .993834418267D+00  .225500000000D+03  .163994537911D+01 -.759960226822D-08
     .129648257513D-09  .100000000000D+01  .157200000000D+04  .000000000000D+00
     .240000000000D+01  .000000000000D+00 -.111758708954D-07  .400000000000D+01
     .381606000000D+06  .400000000000D+01
14 10  2 25 12  0  0.0  .156993046403D-04  .420641299570D-11  .000000000000D+00
     .810000000000D+02  .137375000000D+03  .364158025786D-08 -.208504191322D+01
     .707618892193D-05  .496913108509D-02  .948831439018D-05  .515371819878D+04
     .388800000000D+06  .819563865662D-07  .313678764942D+01 -.122934579849D-06
     .987150683497D+00  .212281250000D+03 -.209868868454D+01 -.761353141986D-08
     .179293182566D-09  .100000000000D+01  .157200000000D+04  .000000000000D+00
     .240000000000D+01  .000000000000D+00 -.884756445885D-08  .810000000000D+02
     .381606000000D+06  .400000000000D+01
16 10  2 25 12  0  0.0 -.451346859336D-04 -.397903932026D-11  .000000000000D+00
     .450000000000D+02 -.146593750000D+03  .422267589140D-08 -.380591294344D+00
    -.764615833759D-05  .571644061711D-02  .730343163013D-05  .515372378349D+04
     .388800000000D+06  .108033418655D-06 -.107098786050D+01 -.987201929092D-07
     .970953893818D+00  .241968750000D+03 -.270230366579D+00 -.808926552181D-08
    -.178578867098D-09  .100000000000D+01  .157200000000D+04  .000000000000D+00
     .240000000000D+01  .000000000000D+00 -.977888703346D-08  .450000000000D+02
     .381606000000D+06  .400000000000D+01
18 10  2 25 12  0  0.0  .513130798936D-04  .261479726760D-11  .000000000000D+00
     .670000000000D+02  .809375000000D+01  .510699844127D-08 -.166444951295D+00
     .413507223129D-06  .109787315596D-01  .948272645473D-05  .515367030907D+04
     .388800000000D+06  .298023223877D-07  .206918603758D+01  .104308128357D-06
     .938231940555D+00  .185968750000D+03 -.235351516890D+01 -.843785147038D-08
    -.710386733316D-09  .100000000000D+01  .157200000000D+04  .000000000000D+00
     .240000000000D+01  .000000000000D+00 -.107102096081D-07  .670000000000D+02
     .381606000000D+06  .400000000000D+01
19 10  2 25 12  0  0.0 -.178492628038D-04 -.238742359215D-11  .000000000000D+00
     .200000000000D+02 -.153750000000D+02  .454840374499D-08 -.223949317307D+01
    -.827014446259D-06  .619058217853D-02  .114310532808D-04  .515370429802D+04
     .388800000000D+06 -.111758708954D-06  .270815277800D-01 -.102445483208D-06
     .958203187615D+00  .159937500000D+03 -.178469580534D+00 -.783354058412D-08
     .523236080597D-09  .100000000000D+01  .157200000000D+04  .000000000000D+00
     .240000000000D+01  .000000000000D+00 -.149011611938D-07  .200000000000D+02
     .381606000000D+06  .400000000000D+01
20 10  2 25 12  0  0.0  .606165267527D-04 -.682121026330D-12  .000000000000D+00
     .200000000000D+01 -.121250000000D+02  .512021327744D-08 -.203272350081D-01
    -.625848770142D-06  .434630922973D-02  .913627445698D-05  .515366468430D+04
     .388800000000D+06 -.121071934700D-06  .201524840746D+01  .894069671631D-07
     .938020218273D+00  .191062500000D+03  .129513966205D+01 -.830463163553D-08
    -.618240037893D-09  .100000000000D+01  .157200000000D+04  .000000000000D+00
     .240000000000D+01  .000000000000D+00 -.791624188423D-08  .200000000000D+01
     .381606000000D+06  .400000000000D+01
22 10  2 25 12  0  0.0  .178254209459D-03 -.909494701773D-12  .000000000000D+00
     .110000000000D+03 -.125000000000D+00  .509199781643D-08 -.116314562692D+01
    -.121071934700D-06  .507266179193D-02  .996701419353D-05  .515365749359D+04
     .388800000000D+06  .000000000000D+00  .207429535651D+01  .100582838058D-06
     .935914079984D+00  .173937500000D+03 -.190399897786D+01 -.827534470132D-08
    -.756817238762D-09  .100000000000D+01  .157200000000D+04  .000000000000D+00
     .485000000000D+01  .000000000000D+00 -.176951289177D-07  .110000000000D+03
     .381606000000D+06  .400000000000D+01
23 10  2 25 12  0  0.0  .378968659788D-03 -.102318153949D-11  .000000000000D+00
     .200000000000D+02  .114468750000D+03  .408338437506D-08 -.278566683832D+01
     .599026679993D-05  .637880363502D-02  .982172787189D-05  .515372352409D+04
     .388800000000D+06 -.949949026108D-07  .309949620717D+01  .372529029846D-08
     .968998817913D+00  .194812500000D+03  .300698401958D+01 -.777853829306D-08
     .109647424398D-09  .100000000000D+01  .157200000000D+04  .000000000000D+00
     .240000000000D+01  .000000000000D+00 -.200234353542D-07  .200000000000D+02
     .381606000000D+06  .400000000000D+01
24 10  2 25 12  0  0.0  .265492592007D-03  .329691829393D-11  .000000000000D+00
     .280000000000D+02  .141875000000D+02  .533415076022D-08 -.801400829698D+00
     .780448317528D-06  .583511881996D-02  .559166073799D-05  .515488226318D+04
     .388800000000D+06  .372529029846D-08  .104822936390D+01 -.726431608200D-07
     .949333992211D+00  .266531250000D+03 -.476737646928D+00 -.843606568171D-08
     .864321716755D-10  .100000000000D+01  .157200000000D+04  .000000000000D+00
     .240000000000D+01  .000000000000D+00 -.139698386192D-08  .280000000000D+02
     .381606000000D+06  .400000000000D+01
25 10  2 25 12  0  0.0  .518164597452D-04  .773070496507D-10  .000000000000D+00
     .176000000000D+03 -.133468750000D+03  .484020161383D-08  .220572248748D-01
    -.713579356670D-05  .102114438778D-01  .675767660141D-05  .515363706017D+04
     .388800000000D+06 -.119209289551D-06 -.119612811419D+01  .745058059692D-07
     .949175300710D+00  .245125000000D+03  .138600555624D+01 -.857142846297D-08
    -.199294015681D-09  .100000000000D+01  .157200000000D+04  .000000000000D+00
     .685000000000D+01  .630000000000D+02 -.419095158577D-08  .176000000000D+03
     .381606000000D+06  .400000000000D+01
26 10  2 25 12  0  0.0 -.220597721636D-04 -.386535248253D-11  .000000000000D+00
     .980000000000D+02  .132843750000D+03  .368122476636D-08  .161615577835D+01
     .662170350552D-05  .192724902881D-01  .973604619503D-05  .515233620834D+04
     .388800000000D+06 -.320374965668D-06 -.312823347733D+01 -.271946191788D-06
     .991592175931D+00  .213031250000D+03  .106134608782D+01 -.783211195319D-08
     .126790995640D-09  .100000000000D+01  .157200000000D+04  .000000000000D+00
     .240000000000D+01  .000000000000D+00 -.605359673500D-08  .980000000000D+02
     .381606000000D+06  .400000000000D+01
27 10  2 25 12  0  0.0  .129170250148D-03  .329691829393D-11  .000000000000D+00
     .240000000000D+02  .309687500000D+02  .424089093584D-08 -.203472215412D+01
     .219233334064D-05  .217277931515D-01  .439584255219D-06  .515366790009D+04
     .388800000000D+06  .227242708206D-06 -.219889740995D+01  .251457095146D-06
     .977385146483D+00  .374781250000D+03 -.145714712638D+01 -.811569519414D-08
     .276082928534D-09  .100000000000D+01  .157200000000D+04  .000000000000D+00
     .240000000000D+01  .000000000000D+00 -.419095158577D-08  .240000000000D+02
     .381606000000D+06  .400000000000D+01
28 10  2 25 12  0  0.0 -.215154141188D-04  .682121026330D-12  .000000000000D+00
     .400000000000D+01 -.115031250000D+03  .438268255632D-08 -.982582097128D+00
    -.574439764023D-05  .158552352805D-01  .746548175812D-05  .515366771889D+04
     .388800000000D+06 -.502914190292D-07 -.106313840092D+01  .368803739548D-06
     .969190953185D+00  .240406250000D+03 -.197303359487D+01 -.820712757409D-08
    -.145720355552D-09  .100000000000D+01  .157200000000D+04  .000000000000D+00
     .240000000000D+01  .000000000000D+00 -.107102096081D-07  .400000000000D+01
     .381606000000D+06  .400000000000D+01
29 10  2 25 12  0  0.0  .100722536445D-03  .284217094304D-11  .000000000000D+00
     .520000000000D+02 -.202187500000D+02  .454626079858D-08  .118009558095D+01
    -.104866921902D-05  .294399366248D-02  .116787850857D-04  .515378937531D+04
     .388800000000D+06  .000000000000D+00 -.199409119905D-01 -.223517417908D-07
     .960863656285D+00  .157312500000D+03 -.131455243867D+01 -.787818530090D-08
     .555737434409D-09  .100000000000D+01  .157200000000D+04  .000000000000D+00
     .240000000000D+01  .000000000000D+00 -.884756445885D-08  .520000000000D+02
     .381606000000D+06  .400000000000D+01
